{"type": "FeatureCollection", "features": [ {"type": "Feature", "properties": {"norad_id": 40938, "name": "BEIDOU-3S IGSO-2S (C56)", "group": "gnss", "lat": -9.864585539641878, "lon": -107.62603811605048, "alt_km": 36027.03484872214, "timestamp": "2025-12-22T04:03:39.411673+00:00", "meta": {"OBJECT_NAME": "BEIDOU-3S IGSO-2S (C56)", "OBJECT_ID": "2015-053A", "EPOCH": "2025-12-21T17:04:25.482720", "MEAN_MOTION": 1.00268185, "ECCENTRICITY": 0.0060602, "INCLINATION": 49.4967, "RA_OF_ASC_NODE": 260.9003, "ARG_OF_PERICENTER": 188.6932, "MEAN_ANOMALY": 352.8862, "EPHEMERIS_TYPE": 0, "CLASSIFICATION_TYPE": "U", "NORAD_CAT_ID": 40938, "ELEMENT_SET_NO": 999, "REV_AT_EPOCH": 3757, "BSTAR": 0, "MEAN_MOTION_DOT": -1.05e-06, "MEAN_MOTION_DDOT": 0}, "tle": {"line1": "1 40938U 15053A   25355.71140605 -.00000105  00000+0  00000+0 0  9997", "line2": "2 40938  49.4967 260.9003 0060602 188.6932 352.8862  1.00268185 37573"}}, "geometry": {"type": "Point", "coordinates": [-107.62603811605048, -9.864585539641878]}}, {"type": "Feature", "properties": {"norad_id": 41019, "name": "GPS BIIF-11 (PRN 10)", "group": "gnss", "lat": -56.01142652180472, "lon": -38.09483535663521, "alt_km": 19987.08249928219, "timestamp": "2025-12-22T04:03:39.411684+00:00", "meta": {"OBJECT_NAME": "GPS BIIF-11 (PRN 10)", "OBJECT_ID": "2015-062A", "EPOCH": "2025-12-20T06:55:31.863072", "MEAN_MOTION": 2.00567218, "ECCENTRICITY": 0.0111019, "INCLINATION": 56.8376, "RA_OF_ASC_NODE": 37.7103, "ARG_OF_PERICENTER": 230.1421, "MEAN_ANOMALY": 128.9419, "EPHEMERIS_TYPE": 0, "CLASSIFICATION_TYPE": "U", "NORAD_CAT_ID": 41019, "ELEMENT_SET_NO": 999, "REV_AT_EPOCH": 7424, "BSTAR": 0, "MEAN_MOTION_DOT": -5.7e-07, "MEAN_MOTION_DDOT": 0}, "tle": {"line1": "1 41019U 15062A   25354.28856323 -.00000057  00000+0  00000+0 0  9996", "line2": "2 41019  56.8376  37.7103 0111019 230.1421 128.9419  2.00567218 74241"}}, "geometry": {"type": "Point", "coordinates": [-38.09483535663521, -56.01142652180472]}}, {"type": "Feature", "properties": {"norad_id": 41028, "name": "GSAT-15 (GAGAN/PRN 139)", "group": "gnss", "lat": -0.024400696342515616, "lon": -114.6026887539638, "alt_km": 35776.02623060259, "timestamp": "2025-12-22T04:03:39.411698+00:00", "meta": {"OBJECT_NAME": "GSAT-15 (GAGAN/PRN 139)", "OBJECT_ID": "2015-065A", "EPOCH": "2025-12-21T19:25:05.433024", "MEAN_MOTION": 1.00272806, "ECCENTRICITY": 0.000235, "INCLINATION": 0.0266, "RA_OF_ASC_NODE": 273.0861, "ARG_OF_PERICENTER": 323.2456, "MEAN_ANOMALY": 239.0714, "EPHEMERIS_TYPE": 0, "CLASSIFICATION_TYPE": "U", "NORAD_CAT_ID": 41028, "ELEMENT_SET_NO": 999, "REV_AT_EPOCH": 3702, "BSTAR": 0, "MEAN_MOTION_DOT": -2.36e-06, "MEAN_MOTION_DDOT": 0}, "tle": {"line1": "1 41028U 15065A   25355.80909066 -.00000236  00000+0  00000+0 0  9990", "line2": "2 41028   0.0266 273.0861 0002350 323.2456 239.0714  1.00272806 37027"}}, "geometry": {"type": "Point", "coordinates": [-114.6026887539638, -0.024400696342515616]}}, {"type": "Feature", "properties": {"norad_id": 41174, "name": "GSAT0209 (GALILEO 12)", "group": "gnss", "lat": 7.347699632593637, "lon": -78.91893402359464, "alt_km": 23228.596391183863, "timestamp": "2025-12-22T04:03:39.411711+00:00", "meta": {"OBJECT_NAME": "GSAT0209 (GALILEO 12)", "OBJECT_ID": "2015-079A", "EPOCH": "2025-12-20T17:12:54.927360", "MEAN_MOTION": 1.70474584, "ECCENTRICITY": 0.00024263, "INCLINATION": 55.7172, "RA_OF_ASC_NODE": 106.1622, "ARG_OF_PERICENTER": 346.435, "MEAN_ANOMALY": 13.5264, "EPHEMERIS_TYPE": 0, "CLASSIFICATION_TYPE": "U", "NORAD_CAT_ID": 41174, "ELEMENT_SET_NO": 999, "REV_AT_EPOCH": 6173, "BSTAR": 0, "MEAN_MOTION_DOT": 0, "MEAN_MOTION_DDOT": 0}, "tle": {"line1": "1 41174U 15079A   25354.71730240  .00000000  00000+0  00000+0 0  9990", "line2": "2 41174  55.7172 106.1622 0002426 346.4350  13.5264  1.70474584 61731"}}, "geometry": {"type": "Point", "coordinates": [-78.91893402359464, 7.347699632593637]}}, {"type": "Feature", "properties": {"norad_id": 41175, "name": "GSAT0208 (GALILEO 11)", "group": "gnss", "lat": 29.02927058375675, "lon": 128.32820108602783, "alt_km": 23214.325344568628, "timestamp": "2025-12-22T04:03:39.411725+00:00", "meta": {"OBJECT_NAME": "GSAT0208 (GALILEO 11)", "OBJECT_ID": "2015-079B", "EPOCH": "2025-12-20T08:25:16.296384", "MEAN_MOTION": 1.70474393, "ECCENTRICITY": 0.00018076, "INCLINATION": 55.7157, "RA_OF_ASC_NODE": 106.1693, "ARG_OF_PERICENTER": 359.1842, "MEAN_ANOMALY": 0.7815, "EPHEMERIS_TYPE": 0, "CLASSIFICATION_TYPE": "U", "NORAD_CAT_ID": 41175, "ELEMENT_SET_NO": 999, "REV_AT_EPOCH": 6214, "BSTAR": 0, "MEAN_MOTION_DOT": -2e-08, "MEAN_MOTION_DDOT": 0}, "tle": {"line1": "1 41175U 15079B   25354.35088306 -.00000002  00000+0  00000+0 0  9993", "line2": "2 41175  55.7157 106.1693 0001807 359.1842   0.7815  1.70474393 62146"}}, "geometry": {"type": "Point", "coordinates": [128.32820108602783, 29.02927058375675]}}, {"type": "Feature", "properties": {"norad_id": 41241, "name": "IRNSS-1E", "group": "gnss", "lat": -11.392800770118281, "lon": -99.4902842458107, "alt_km": 35699.13159300925, "timestamp": "2025-12-22T04:03:39.411737+00:00", "meta": {"OBJECT_NAME": "IRNSS-1E", "OBJECT_ID": "2016-003A", "EPOCH": "2025-12-20T14:57:09.230400", "MEAN_MOTION": 1.00270447, "ECCENTRICITY": 0.0021619, "INCLINATION": 32.8427, "RA_OF_ASC_NODE": 62.3382, "ARG_OF_PERICENTER": 188.6599, "MEAN_ANOMALY": 174.4859, "EPHEMERIS_TYPE": 0, "CLASSIFICATION_TYPE": "U", "NORAD_CAT_ID": 41241, "ELEMENT_SET_NO": 999, "REV_AT_EPOCH": 3629, "BSTAR": 0, "MEAN_MOTION_DOT": -3e-06, "MEAN_MOTION_DDOT": 0}, "tle": {"line1": "1 41241U 16003A   25354.62302350 -.00000300  00000+0  00000+0 0  9994", "line2": "2 41241  32.8427  62.3382 0021619 188.6599 174.4859  1.00270447 36292"}}, "geometry": {"type": "Point", "coordinates": [-99.4902842458107, -11.392800770118281]}}, {"type": "Feature", "properties": {"norad_id": 41328, "name": "GPS BIIF-12 (PRN 32)", "group": "gnss", "lat": -29.56041492577154, "lon": -60.51190085680437, "alt_km": 19966.726967845847, "timestamp": "2025-12-22T04:03:39.411748+00:00", "meta": {"OBJECT_NAME": "GPS BIIF-12 (PRN 32)", "OBJECT_ID": "2016-007A", "EPOCH": "2025-12-21T08:50:32.363232", "MEAN_MOTION": 2.00560305, "ECCENTRICITY": 0.00925842, "INCLINATION": 55.4109, "RA_OF_ASC_NODE": 96.5146, "ARG_OF_PERICENTER": 243.788, "MEAN_ANOMALY": 115.2562, "EPHEMERIS_TYPE": 0, "CLASSIFICATION_TYPE": "U", "NORAD_CAT_ID": 41328, "ELEMENT_SET_NO": 999, "REV_AT_EPOCH": 7227, "BSTAR": 0, "MEAN_MOTION_DOT": -8e-08, "MEAN_MOTION_DDOT": 0}, "tle": {"line1": "1 41328U 16007A   25355.36843013 -.00000008  00000+0  00000+0 0  9997", "line2": "2 41328  55.4109  96.5146 0092584 243.7880 115.2562  2.00560305 72276"}}, "geometry": {"type": "Point", "coordinates": [-60.51190085680437, -29.56041492577154]}}, {"type": "Feature", "properties": {"norad_id": 41330, "name": "COSMOS 2514 (751)", "group": "gnss", "lat": -20.600726597258472, "lon": 149.09882190943335, "alt_km": 19104.427847194856, "timestamp": "2025-12-22T04:03:39.411760+00:00", "meta": {"OBJECT_NAME": "COSMOS 2514 (751)", "OBJECT_ID": "2016-008A", "EPOCH": "2025-12-21T10:27:05.552352", "MEAN_MOTION": 2.13102677, "ECCENTRICITY": 0.0011723, "INCLINATION": 65.1288, "RA_OF_ASC_NODE": 319.1063, "ARG_OF_PERICENTER": 220.1275, "MEAN_ANOMALY": 139.7798, "EPHEMERIS_TYPE": 0, "CLASSIFICATION_TYPE": "U", "NORAD_CAT_ID": 41330, "ELEMENT_SET_NO": 999, "REV_AT_EPOCH": 7683, "BSTAR": 0, "MEAN_MOTION_DOT": -4.6e-07, "MEAN_MOTION_DDOT": 0}, "tle": {"line1": "1 41330U 16008A   25355.43548093 -.00000046  00000+0  00000+0 0  9991", "line2": "2 41330  65.1288 319.1063 0011723 220.1275 139.7798  2.13102677 76836"}}, "geometry": {"type": "Point", "coordinates": [149.09882190943335, -20.600726597258472]}}, {"type": "Feature", "properties": {"norad_id": 41384, "name": "IRNSS-1F", "group": "gnss", "lat": 4.8730197038163565, "lon": -175.9254530504048, "alt_km": 35798.17307207006, "timestamp": "2025-12-22T04:03:39.411772+00:00", "meta": {"OBJECT_NAME": "IRNSS-1F", "OBJECT_ID": "2016-015A", "EPOCH": "2025-12-21T11:38:26.700000", "MEAN_MOTION": 1.0027691, "ECCENTRICITY": 0.0022665, "INCLINATION": 4.903, "RA_OF_ASC_NODE": 101.0809, "ARG_OF_PERICENTER": 181.7782, "MEAN_ANOMALY": 14.5073, "EPHEMERIS_TYPE": 0, "CLASSIFICATION_TYPE": "U", "NORAD_CAT_ID": 41384, "ELEMENT_SET_NO": 999, "REV_AT_EPOCH": 3588, "BSTAR": 0, "MEAN_MOTION_DOT": 1.77e-06, "MEAN_MOTION_DDOT": 0}, "tle": {"line1": "1 41384U 16015A   25355.48503125  .00000177  00000+0  00000+0 0  9994", "line2": "2 41384   4.9030 101.0809 0022665 181.7782  14.5073  1.00276910 35882"}}, "geometry": {"type": "Point", "coordinates": [-175.9254530504048, 4.8730197038163565]}}, {"type": "Feature", "properties": {"norad_id": 41434, "name": "BEIDOU-2 IGSO-6 (C13)", "group": "gnss", "lat": -21.65047498638939, "lon": -126.89603234402101, "alt_km": 35549.86273575885, "timestamp": "2025-12-22T04:03:39.411786+00:00", "meta": {"OBJECT_NAME": "BEIDOU-2 IGSO-6 (C13)", "OBJECT_ID": "2016-021A", "EPOCH": "2025-12-18T14:33:38.837664", "MEAN_MOTION": 1.00292299, "ECCENTRICITY": 0.00610054, "INCLINATION": 59.9732, "RA_OF_ASC_NODE": 39.8392, "ARG_OF_PERICENTER": 230.2031, "MEAN_ANOMALY": 129.1398, "EPHEMERIS_TYPE": 0, "CLASSIFICATION_TYPE": "U", "NORAD_CAT_ID": 41434, "ELEMENT_SET_NO": 999, "REV_AT_EPOCH": 3566, "BSTAR": 0, "MEAN_MOTION_DOT": -1.41e-06, "MEAN_MOTION_DDOT": 0}, "tle": {"line1": "1 41434U 16021A   25352.60669951 -.00000141  00000+0  00000+0 0  9990", "line2": "2 41434  59.9732  39.8392 0061005 230.2031 129.1398  1.00292299 35667"}}, "geometry": {"type": "Point", "coordinates": [-126.89603234402101, -21.65047498638939]}}]}